<?xml version="1.0" encoding="UTF-8"?>
<kml xmlns="http://www.opengis.net/kml/2.2" xmlns:gx="http://www.google.com/kml/ext/2.2" xmlns:kml="http://www.opengis.net/kml/2.2" xmlns:atom="http://www.w3.org/2005/Atom">
<Document>
	<name>Sommerferie_19.kml</name>
	<Style id="s_ylw-pushpin_hl27">
		<IconStyle>
			<scale>1.4</scale>
			<Icon>
				<href>http://maps.google.com/mapfiles/kml/shapes/lodging.png</href>
			</Icon>
			<hotSpot x="0.5" y="0" xunits="fraction" yunits="fraction"/>
		</IconStyle>
	</Style>
	<StyleMap id="m_ylw-pushpin1101">
		<Pair>
			<key>normal</key>
			<styleUrl>#s_ylw-pushpin61</styleUrl>
		</Pair>
		<Pair>
			<key>highlight</key>
			<styleUrl>#s_ylw-pushpin_hl27</styleUrl>
		</Pair>
	</StyleMap>
	<Style id="s_ylw-pushpin61">
		<IconStyle>
			<scale>1.2</scale>
			<Icon>
				<href>http://maps.google.com/mapfiles/kml/shapes/lodging.png</href>
			</Icon>
			<hotSpot x="0.5" y="0" xunits="fraction" yunits="fraction"/>
		</IconStyle>
	</Style>
	<Folder>
		<name>Sommerferie &apos;19</name>
		<visibility>0</visibility>
		<open>1</open>
		<Placemark>
			<name>3-4/8   Kalisz Pomorski</name>
			<visibility>0</visibility>
			<description>Biały Zdrój 25, 78-540 Kalisz Pomorski, Poland</description>
			<LookAt>
				<longitude>15.95818900456303</longitude>
				<latitude>53.26513838660807</latitude>
				<altitude>0</altitude>
				<heading>-0.0001388365069813479</heading>
				<tilt>16.12394330316248</tilt>
				<range>407.6578586269754</range>
				<gx:altitudeMode>relativeToSeaFloor</gx:altitudeMode>
			</LookAt>
			<styleUrl>#m_ylw-pushpin1101</styleUrl>
			<Point>
				<gx:drawOrder>1</gx:drawOrder>
				<coordinates>15.95836440651395,53.2651255086229,0</coordinates>
			</Point>
		</Placemark>
	</Folder>
</Document>
</kml>
